{
    "links": {
        "self": "http://www.neowsapp.com/rest/v1/neo/3781724?api_key=iIulBulltgU6a56xZRHN4H3l9WmuAYTsLGpBGhQ2"
    },
    "id": "3781724",
    "neo_reference_id": "3781724",
    "name": "(2017 SK12)",
    "designation": "2017 SK12",
    "nasa_jpl_url": "http://ssd.jpl.nasa.gov/sbdb.cgi?sstr=3781724",
    "absolute_magnitude_h": 23.7,
    "estimated_diameter": {
        "kilometers": {
            "estimated_diameter_min": 0.0483676488,
            "estimated_diameter_max": 0.1081533507
        },
        "meters": {
            "estimated_diameter_min": 48.3676488219,
            "estimated_diameter_max": 108.1533506775
        },
        "miles": {
            "estimated_diameter_min": 0.0300542543,
            "estimated_diameter_max": 0.0672033557
        },
        "feet": {
            "estimated_diameter_min": 158.6865169607,
            "estimated_diameter_max": 354.8338390368
        }
    },
    "is_potentially_hazardous_asteroid": false,
    "close_approach_data": [
        {
            "close_approach_date": "2017-10-04",
            "close_approach_date_full": "2017-Oct-04 06:01",
            "epoch_date_close_approach": 1507096860000,
            "relative_velocity": {
                "kilometers_per_second": "18.9467269638",
                "kilometers_per_hour": "68208.217069846",
                "miles_per_hour": "42381.9335454273"
            },
            "miss_distance": {
                "astronomical": "0.0524253437",
                "lunar": "20.3934586993",
                "kilometers": "7842719.751537919",
                "miles": "4873240.0784605222"
            },
            "orbiting_body": "Earth"
        }
    ],
    "orbital_data": {
        "orbit_id": "3",
        "orbit_determination_date": "2017-10-02 06:49:02",
        "first_observation_date": "2017-09-22",
        "last_observation_date": "2017-10-01",
        "data_arc_in_days": 9,
        "observations_used": 25,
        "orbit_uncertainty": "8",
        "minimum_orbit_intersection": ".0262826",
        "jupiter_tisserand_invariant": "3.914",
        "epoch_osculation": "2458019.5",
        "eccentricity": ".6235781399402762",
        "semi_major_axis": "1.725798881296783",
        "inclination": "3.370405890604076",
        "ascending_node_longitude": "40.18623321274121",
        "orbital_period": "828.1017483729315",
        "perihelion_distance": ".6496284249867255",
        "perihelion_argument": "58.17417114378527",
        "aphelion_distance": "2.80196933760684",
        "perihelion_time": "2458079.412715375981",
        "mean_anomaly": "333.9541939408636",
        "mean_motion": ".4347291872132068",
        "equinox": "J2000",
        "orbit_class": {
            "orbit_class_type": "APO",
            "orbit_class_description": "Near-Earth asteroid orbits which cross the Earth’s orbit similar to that of 1862 Apollo",
            "orbit_class_range": "a (semi-major axis) > 1.0 AU; q (perihelion) < 1.017 AU"
        }
    },
    "is_sentry_object": false
}